GLOBAL-2                
1 43812U 18099BG  26068.69955396  .00003970  00000+0  26145-3 0  9998
2 43812  97.3697 109.3280 0007454 127.1924 232.9986 15.08046936396919
STARLINK-35357          
1 65799U 25218J   26068.59216854  .00003473  00000+0  24481-3 0  9994
2 65799  97.6023 292.8374 0001957 101.6178 258.5268 15.05647342 24959
