[{"OBJECT_NAME":"GLOBAL-2","OBJECT_ID":"2018-099BG","EPOCH":"2026-03-09T16:47:21.463008","MEAN_MOTION":15.08046936,"ECCENTRICITY":0.00074537,"INCLINATION":97.3697,"RA_OF_ASC_NODE":109.328,"ARG_OF_PERICENTER":127.1924,"MEAN_ANOMALY":232.9986,"EPHEMERIS_TYPE":0,"CLASSIFICATION_TYPE":"U","NORAD_CAT_ID":43812,"ELEMENT_SET_NO":999,"REV_AT_EPOCH":39691,"BSTAR":0.0002614533,"MEAN_MOTION_DOT":3.97e-5,"MEAN_MOTION_DDOT":0},{"OBJECT_NAME":"STARLINK-35357","OBJECT_ID":"2025-218J","EPOCH":"2026-03-09T14:12:43.361856","MEAN_MOTION":15.05647342,"ECCENTRICITY":0.0001957,"INCLINATION":97.6023,"RA_OF_ASC_NODE":292.8374,"ARG_OF_PERICENTER":101.6178,"MEAN_ANOMALY":258.5268,"EPHEMERIS_TYPE":0,"CLASSIFICATION_TYPE":"U","NORAD_CAT_ID":65799,"ELEMENT_SET_NO":999,"REV_AT_EPOCH":2495,"BSTAR":0.00024481,"MEAN_MOTION_DOT":3.473e-5,"MEAN_MOTION_DDOT":0}]
